CCSDS_OMM_VERS = 2.0
CREATION_DATE  = 
ORIGINATOR     = 

OBJECT_NAME    = STARLINK-36569
OBJECT_ID      = 2026-014X
CENTER_NAME    = EARTH
REF_FRAME      = TEME
TIME_SYSTEM    = UTC
MEAN_ELEMENT_THEORY = SGP/SGP4

EPOCH          = 2026-02-16T04:00:00.999936
MEAN_MOTION    = 15.75156417
ECCENTRICITY   = .0001488
INCLINATION    = 97.2856
RA_OF_ASC_NODE = 291.0708
ARG_OF_PERICENTER = 95.2298
MEAN_ANOMALY   = 50.6523

EPHEMERIS_TYPE = 0
CLASSIFICATION_TYPE = U
NORAD_CAT_ID   = 67553
ELEMENT_SET_NO = 999
REV_AT_EPOCH   = 523
BSTAR          = .5043E-3
MEAN_MOTION_DOT = .7565E-3
MEAN_MOTION_DDOT = 0

CCSDS_OMM_VERS = 2.0
CREATION_DATE  = 
ORIGINATOR     = 

OBJECT_NAME    = STARLINK-36395
OBJECT_ID      = 2026-014Y
CENTER_NAME    = EARTH
REF_FRAME      = TEME
TIME_SYSTEM    = UTC
MEAN_ELEMENT_THEORY = SGP/SGP4

EPOCH          = 2026-02-16T03:52:27.232320
MEAN_MOTION    = 15.75166587
ECCENTRICITY   = .0002646
INCLINATION    = 97.2856
RA_OF_ASC_NODE = 291.0151
ARG_OF_PERICENTER = 131.3537
MEAN_ANOMALY   = 228.7956

EPHEMERIS_TYPE = 0
CLASSIFICATION_TYPE = U
NORAD_CAT_ID   = 67554
ELEMENT_SET_NO = 999
REV_AT_EPOCH   = 517
BSTAR          = .15213E-2
MEAN_MOTION_DOT = .232862E-2
MEAN_MOTION_DDOT = 0

CCSDS_OMM_VERS = 2.0
CREATION_DATE  = 
ORIGINATOR     = 

OBJECT_NAME    = STARLINK-36559
OBJECT_ID      = 2026-014Z
CENTER_NAME    = EARTH
REF_FRAME      = TEME
TIME_SYSTEM    = UTC
MEAN_ELEMENT_THEORY = SGP/SGP4

EPOCH          = 2026-02-16T03:54:29.351808
MEAN_MOTION    = 15.75162575
ECCENTRICITY   = .0001893
INCLINATION    = 97.2855
RA_OF_ASC_NODE = 291.0127
ARG_OF_PERICENTER = 95.8005
MEAN_ANOMALY   = 264.3476

EPHEMERIS_TYPE = 0
CLASSIFICATION_TYPE = U
NORAD_CAT_ID   = 67555
ELEMENT_SET_NO = 999
REV_AT_EPOCH   = 517
BSTAR          = .14741E-2
MEAN_MOTION_DOT = .225386E-2
MEAN_MOTION_DDOT = 0

CCSDS_OMM_VERS = 2.0
CREATION_DATE  = 
ORIGINATOR     = 

OBJECT_NAME    = MR-2
OBJECT_ID      = 2026-015A
CENTER_NAME    = EARTH
REF_FRAME      = TEME
TIME_SYSTEM    = UTC
MEAN_ELEMENT_THEORY = SGP/SGP4

EPOCH          = 2026-02-16T04:29:28.385376
MEAN_MOTION    = 13.52686425
ECCENTRICITY   = .0005084
INCLINATION    = 88.9967
RA_OF_ASC_NODE = 280.8488
ARG_OF_PERICENTER = 77.2216
MEAN_ANOMALY   = 282.9504

EPHEMERIS_TYPE = 0
CLASSIFICATION_TYPE = U
NORAD_CAT_ID   = 67556
ELEMENT_SET_NO = 999
REV_AT_EPOCH   = 335
BSTAR          = .93429E-4
MEAN_MOTION_DOT = .74E-6
MEAN_MOTION_DDOT = 0

CCSDS_OMM_VERS = 2.0
CREATION_DATE  = 
ORIGINATOR     = 

OBJECT_NAME    = MR-1
OBJECT_ID      = 2026-015B
CENTER_NAME    = EARTH
REF_FRAME      = TEME
TIME_SYSTEM    = UTC
MEAN_ELEMENT_THEORY = SGP/SGP4

EPOCH          = 2026-02-16T04:30:07.363872
MEAN_MOTION    = 13.52661591
ECCENTRICITY   = .0005176
INCLINATION    = 88.9968
RA_OF_ASC_NODE = 280.8492
ARG_OF_PERICENTER = 75.8742
MEAN_ANOMALY   = 284.2985

EPHEMERIS_TYPE = 0
CLASSIFICATION_TYPE = U
NORAD_CAT_ID   = 67557
ELEMENT_SET_NO = 999
REV_AT_EPOCH   = 335
BSTAR          = .11167E-3
MEAN_MOTION_DOT = .86E-6
MEAN_MOTION_DDOT = 0

CCSDS_OMM_VERS = 2.0
CREATION_DATE  = 
ORIGINATOR     = 

OBJECT_NAME    = ELECTRON R/B
OBJECT_ID      = 2026-015C
CENTER_NAME    = EARTH
REF_FRAME      = TEME
TIME_SYSTEM    = UTC
MEAN_ELEMENT_THEORY = SGP/SGP4

EPOCH          = 2026-02-16T02:04:17.172768
MEAN_MOTION    = 15.58704005
ECCENTRICITY   = .0341361
INCLINATION    = 88.9770
RA_OF_ASC_NODE = 280.0973
ARG_OF_PERICENTER = 178.2593
MEAN_ANOMALY   = 181.9960

EPHEMERIS_TYPE = 0
CLASSIFICATION_TYPE = U
NORAD_CAT_ID   = 67558
ELEMENT_SET_NO = 999
REV_AT_EPOCH   = 372
BSTAR          = .16502E-2
MEAN_MOTION_DOT = .3559848E-1
MEAN_MOTION_DDOT = -.12801E-5

CCSDS_OMM_VERS = 2.0
CREATION_DATE  = 
ORIGINATOR     = 

OBJECT_NAME    = ELECTRON KICK STAGE R/B
OBJECT_ID      = 2026-015D
CENTER_NAME    = EARTH
REF_FRAME      = TEME
TIME_SYSTEM    = UTC
MEAN_ELEMENT_THEORY = SGP/SGP4

EPOCH          = 2026-02-16T04:18:10.124640
MEAN_MOTION    = 14.68345257
ECCENTRICITY   = .0527993
INCLINATION    = 89.0503
RA_OF_ASC_NODE = 280.4514
ARG_OF_PERICENTER = 248.5865
MEAN_ANOMALY   = 105.8261

EPHEMERIS_TYPE = 0
CLASSIFICATION_TYPE = U
NORAD_CAT_ID   = 67559
ELEMENT_SET_NO = 999
REV_AT_EPOCH   = 363
BSTAR          = .89502E-3
MEAN_MOTION_DOT = .5323E-3
MEAN_MOTION_DDOT = -.1323E-7

CCSDS_OMM_VERS = 2.0
CREATION_DATE  = 
ORIGINATOR     = 

OBJECT_NAME    = STARLINK-36426
OBJECT_ID      = 2026-014AA
CENTER_NAME    = EARTH
REF_FRAME      = TEME
TIME_SYSTEM    = UTC
MEAN_ELEMENT_THEORY = SGP/SGP4

EPOCH          = 2026-02-16T04:00:00.999936
MEAN_MOTION    = 15.75182419
ECCENTRICITY   = .0001804
INCLINATION    = 97.2845
RA_OF_ASC_NODE = 291.0885
ARG_OF_PERICENTER = 110.3102
MEAN_ANOMALY   = 69.5542

EPHEMERIS_TYPE = 0
CLASSIFICATION_TYPE = U
NORAD_CAT_ID   = 67560
ELEMENT_SET_NO = 999
REV_AT_EPOCH   = 406
BSTAR          = .10559E-3
MEAN_MOTION_DOT = .15644E-3
MEAN_MOTION_DDOT = 0

CCSDS_OMM_VERS = 2.0
CREATION_DATE  = 
ORIGINATOR     = 

OBJECT_NAME    = STARLINK-36621
OBJECT_ID      = 2026-016A
CENTER_NAME    = EARTH
REF_FRAME      = TEME
TIME_SYSTEM    = UTC
MEAN_ELEMENT_THEORY = SGP/SGP4

EPOCH          = 2026-02-16T03:03:19.107072
MEAN_MOTION    = 15.75165214
ECCENTRICITY   = .0001375
INCLINATION    = 97.2829
RA_OF_ASC_NODE = 106.4682
ARG_OF_PERICENTER = 107.8745
MEAN_ANOMALY   = 252.2670

EPHEMERIS_TYPE = 0
CLASSIFICATION_TYPE = U
NORAD_CAT_ID   = 67561
ELEMENT_SET_NO = 999
REV_AT_EPOCH   = 340
BSTAR          = .32973E-3
MEAN_MOTION_DOT = .49283E-3
MEAN_MOTION_DDOT = 0

CCSDS_OMM_VERS = 2.0
CREATION_DATE  = 
ORIGINATOR     = 

OBJECT_NAME    = STARLINK-36398
OBJECT_ID      = 2026-016B
CENTER_NAME    = EARTH
REF_FRAME      = TEME
TIME_SYSTEM    = UTC
MEAN_ELEMENT_THEORY = SGP/SGP4

EPOCH          = 2026-02-16T03:13:59.871072
MEAN_MOTION    = 15.75207318
ECCENTRICITY   = .0001465
INCLINATION    = 97.2834
RA_OF_ASC_NODE = 106.4555
ARG_OF_PERICENTER = 92.5817
MEAN_ANOMALY   = 267.5616

EPHEMERIS_TYPE = 0
CLASSIFICATION_TYPE = U
NORAD_CAT_ID   = 67562
ELEMENT_SET_NO = 999
REV_AT_EPOCH   = 340
BSTAR          = .10386E-2
MEAN_MOTION_DOT = .157798E-2
MEAN_MOTION_DDOT = 0

CCSDS_OMM_VERS = 2.0
CREATION_DATE  = 
ORIGINATOR     = 

OBJECT_NAME    = STARLINK-36403
OBJECT_ID      = 2026-016C
CENTER_NAME    = EARTH
REF_FRAME      = TEME
TIME_SYSTEM    = UTC
MEAN_ELEMENT_THEORY = SGP/SGP4

EPOCH          = 2026-02-16T04:02:36.189024
MEAN_MOTION    = 15.80866351
ECCENTRICITY   = .0000843
INCLINATION    = 97.2830
RA_OF_ASC_NODE = 106.5662
ARG_OF_PERICENTER = 78.9290
MEAN_ANOMALY   = 281.2073

EPHEMERIS_TYPE = 0
CLASSIFICATION_TYPE = U
NORAD_CAT_ID   = 67563
ELEMENT_SET_NO = 999
REV_AT_EPOCH   = 341
BSTAR          = .135E-2
MEAN_MOTION_DOT = .267135E-2
MEAN_MOTION_DDOT = 0

CCSDS_OMM_VERS = 2.0
CREATION_DATE  = 
ORIGINATOR     = 

OBJECT_NAME    = STARLINK-36593
OBJECT_ID      = 2026-016D
CENTER_NAME    = EARTH
REF_FRAME      = TEME
TIME_SYSTEM    = UTC
MEAN_ELEMENT_THEORY = SGP/SGP4

EPOCH          = 2026-02-16T04:00:50.533056
MEAN_MOTION    = 15.80840463
ECCENTRICITY   = .0000985
INCLINATION    = 97.2833
RA_OF_ASC_NODE = 106.5679
ARG_OF_PERICENTER = 78.6866
MEAN_ANOMALY   = 281.4513

EPHEMERIS_TYPE = 0
CLASSIFICATION_TYPE = U
NORAD_CAT_ID   = 67564
ELEMENT_SET_NO = 999
REV_AT_EPOCH   = 341
BSTAR          = .94955E-3
MEAN_MOTION_DOT = .185876E-2
MEAN_MOTION_DDOT = 0

