STARLINK-36569          
1 67553U 26014X   26047.16667824  .00075650  00000+0  50430-3 0  9995
2 67553  97.2856 291.0708 0001488  95.2298  50.6523 15.75156417  5231
STARLINK-36395          
1 67554U 26014Y   26047.16142630  .00232862  00000+0  15213-2 0  9998
2 67554  97.2856 291.0151 0002646 131.3537 228.7956 15.75166587  5179
STARLINK-36559          
1 67555U 26014Z   26047.16283972  .00225386  00000+0  14741-2 0  9992
2 67555  97.2855 291.0127 0001893  95.8005 264.3476 15.75162575  5175
MR-2                    
1 67556U 26015A   26047.18713409  .00000074  00000+0  93429-4 0  9996
2 67556  88.9967 280.8488 0005084  77.2216 282.9504 13.52686425  3351
MR-1                    
1 67557U 26015B   26047.18758523  .00000086  00000+0  11167-3 0  9994
2 67557  88.9968 280.8492 0005176  75.8742 284.2985 13.52661591  3353
ELECTRON R/B            
1 67558U 26015C   26047.08630987  .03559848 -12801-5  16502-2 0  9991
2 67558  88.9770 280.0973 0341361 178.2593 181.9960 15.58704005  3725
ELECTRON KICK STAGE R/B 
1 67559U 26015D   26047.17928385  .00053230 -13230-7  89502-3 0  9995
2 67559  89.0503 280.4514 0527993 248.5865 105.8261 14.68345257  3636
STARLINK-36426          
1 67560U 26014AA  26047.16667824  .00015644  00000+0  10559-3 0  9998
2 67560  97.2845 291.0885 0001804 110.3102  69.5542 15.75182419  4069
STARLINK-36621          
1 67561U 26016A   26047.12730448  .00049283  00000+0  32973-3 0  9990
2 67561  97.2829 106.4682 0001375 107.8745 252.2670 15.75165214  3407
STARLINK-36398          
1 67562U 26016B   26047.13472073  .00157798  00000+0  10386-2 0  9993
2 67562  97.2834 106.4555 0001465  92.5817 267.5616 15.75207318  3404
STARLINK-36403          
1 67563U 26016C   26047.16847441  .00267135  00000+0  13500-2 0  9990
2 67563  97.2830 106.5662 0000843  78.9290 281.2073 15.80866351  3418
STARLINK-36593          
1 67564U 26016D   26047.16725154  .00185876  00000+0  94955-3 0  9992
2 67564  97.2833 106.5679 0000985  78.6866 281.4513 15.80840463  3410
